ONEWEB-0317             
1 49103U 21075AE  23363.91933005 -.00000161  00000+0 -48153-3 0  9992
2 49103  87.8999 169.7600 0001817  99.2489 260.8845 13.12444339117103
ONEWEB-0318             
1 49104U 21075AF  23363.88168402 -.00005221  00000+0 -13274-1 0  9996
2 49104  87.9210 154.5805 0000941  75.9292 284.1945 13.18737062118510
ONEWEB-0319             
1 49105U 21075AG  23363.87428145  .00000029  00000+0  41862-4 0  9995
2 49105  87.9209 184.8871 0001413  65.8297 294.2982 13.17645816115048
ONEWEB-0323             
1 49106U 21075AH  23363.90980703  .00000333  00000+0  89027-3 0  9995
2 49106  87.9000 169.7502 0001424  85.1292 274.9999 13.12443702116468
ONEWEB-0329             
1 49107U 21075AJ  23363.88218464  .00000008  00000+0 -12022-4 0  9993
2 49107  87.9210 184.8896 0001633  79.7407 280.3908 13.17648864115028
ONEWEB-0330             
1 49108U 21075AK  23363.88378028  .00000035  00000+0  57919-4 0  9990
2 49108  87.9193 184.8897 0001750  82.3758 277.7572 13.17648717115067
ONEWEB-0292             
1 49186U 21083A   23363.89746882  .00000086  00000+0  20168-3 0  9994
2 49186  87.9005 139.4331 0001390 102.1806 257.9479 13.13473896112747
ONEWEB-0303             
1 49187U 21083B   23363.87844805  .00006402  00000+0  16204-1 0  9999
2 49187  87.9191 154.5829 0000934  83.6574 276.4665 13.18641827111324
